{"type": "FeatureCollection", "features": [{"type": "Feature", "properties": {"scalerank": 3, "featurecla": "Lake Centerline", "name": "Huang", "note": null, "min_zoom": 3.0, "name_alt": null, "name_en": "Huang", "min_label": 4.0}, "bbox": [97.072039, 34.835445, 97.76285, 35.088091], "geometry": {"type": "MultiLineString", "coordinates": [[[97.288253, 34.835445], [97.247791, 34.889318], [97.193685, 34.913115], [97.072039, 34.930607]], [[97.76285, 35.088091], [97.713654, 34.961897], [97.659393, 34.908877], [97.545912, 34.875985]]]}}, {"type": "Feature", "properties": {"scalerank": 3, "featurecla": "River", "name": "Huang", "note": null, "min_zoom": 3.0, "name_alt": null, "name_en": "Huang", "min_label": 4.0}, "bbox": [96.164187, 33.355794, 114.830852, 40.874663], "geometry": {"type": "MultiLineString", "coordinates": [[[97.288253, 34.835445], [97.547049, 34.875985]], [[97.76285, 35.088091], [97.934415, 35.082458], [98.028001, 35.033779], [98.100865, 34.940193], [98.197448, 34.873866], [98.317751, 34.834825], [98.382347, 34.798186], [98.395783, 34.746717], [98.40002, 34.673646], [98.383587, 34.630677], [98.347723, 34.593393], [98.376042, 34.531381], [98.468543, 34.444565], [98.563421, 34.389632], [98.660934, 34.366585], [98.713179, 34.380021], [98.720104, 34.429966], [98.751936, 34.460998], [98.808574, 34.473142], [98.89167, 34.461954], [99.001224, 34.427511], [99.057551, 34.300594], [99.060651, 34.081176], [99.12318, 33.915243], [99.245136, 33.802795], [99.323788, 33.748121], [99.359135, 33.75117], [99.381459, 33.77135], [99.390657, 33.808583], [99.43882, 33.81189], [99.525843, 33.781298], [99.619894, 33.774502], [99.720973, 33.791478], [99.868354, 33.743522], [100.062141, 33.630661], [100.191435, 33.603531], [100.256237, 33.662209], [100.277942, 33.708744], [100.329773, 33.757371], [100.434366, 33.798687], [100.58738, 33.883255], [100.689493, 33.926198], [100.740446, 33.927516], [100.824678, 33.877777], [100.941984, 33.776957], [101.009163, 33.764167], [101.026113, 33.839356], [101.123368, 33.826876], [101.300928, 33.726727], [101.48071, 33.677531], [101.662663, 33.679366], [101.808908, 33.611075], [101.919288, 33.472686], [102.005071, 33.387626], [102.066153, 33.355794], [102.192967, 33.371168], [102.38541, 33.433696], [102.481631, 33.483745], [102.481631, 33.521288], [102.45016, 33.557384], [102.387218, 33.592007], [102.352544, 33.638257], [102.329806, 33.725099], [102.316008, 33.745072], [102.285054, 33.800263], [102.205989, 33.897259], [102.103153, 33.959168], [101.976442, 33.985988], [101.83764, 34.047328], [101.686848, 34.143188], [101.517039, 34.218532], [101.32842, 34.273361], [101.210494, 34.350462], [101.163262, 34.449939], [101.086988, 34.5127], [100.981671, 34.538796], [100.912011, 34.593418], [100.878215, 34.676566], [100.814653, 34.707546], [100.721429, 34.686307], [100.629755, 34.708166], [100.539734, 34.77302], [100.455088, 34.812552], [100.37592, 34.826763], [100.307397, 34.935542], [100.220477, 35.24064], [100.258615, 35.281723], [100.23629, 35.338205], [100.166114, 35.423781], [100.172315, 35.542844], [100.254894, 35.695393], [100.333855, 35.773527], [100.409303, 35.777248], [100.545884, 35.869361], [100.743546, 36.049841], [100.897852, 36.14167], [101.008801, 36.144848], [101.071175, 36.135056], [101.084921, 36.112266], [101.175716, 36.088909], [101.343406, 36.064879], [101.494818, 36.085756], [101.629694, 36.151489], [101.762502, 36.151592], [101.893037, 36.086015], [101.993496, 35.997467], [102.063776, 35.885898], [102.184595, 35.844531], [102.355851, 35.873366], [102.610306, 35.860395], [102.947753, 35.805567], [103.177196, 35.811561], [103.298636, 35.878327], [103.316774, 35.931218], [103.231715, 35.97026], [103.255589, 36.039558], [103.388398, 36.139112], [103.560222, 36.157845], [103.771062, 36.095678], [103.915962, 36.068083], [103.995079, 36.075059], [104.030632, 36.104463], [104.022674, 36.156295], [104.072232, 36.228771], [104.179202, 36.32184], [104.352111, 36.427803], [104.59096, 36.546607], [104.713485, 36.627584], [104.719789, 36.670734], [104.690385, 36.7275], [104.62517, 36.797935], [104.528431, 36.850077], [104.400067, 36.883899], [104.326583, 36.945523], [104.307876, 37.034923], [104.313871, 37.093447], [104.352732, 37.173881], [104.446059, 37.19698], [104.520267, 37.241319], [104.57556, 37.306896], [104.691626, 37.358599], [104.956932, 37.415391], [104.99786, 37.461486], [105.151959, 37.482777], [105.432769, 37.494714], [105.648983, 37.521999], [105.800395, 37.564736], [105.905298, 37.660802], [105.963589, 37.810251], [106.036866, 37.915696], [106.125026, 37.977088], [106.196392, 38.064137], [106.250859, 38.176895], [106.33783, 38.281695], [106.457203, 38.378485], [106.530997, 38.49778], [106.559109, 38.639528], [106.63993, 38.7797], [106.773566, 38.918297], [106.850667, 39.016844], [106.871338, 39.07529], [106.848703, 39.183112], [106.782867, 39.340261], [106.758683, 39.482784], [106.776253, 39.610657], [106.768191, 39.760054], [106.717755, 40.016317], [107.043162, 40.28612], [107.14915, 40.395519], [107.144189, 40.434457], [107.173955, 40.49988], [107.23855, 40.591838], [107.37973, 40.671213], [107.597701, 40.738031], [107.719554, 40.793453], [107.745496, 40.837482], [107.86213, 40.864534], [108.069559, 40.874663], [108.190172, 40.863268], [108.223968, 40.83035], [108.290062, 40.814667], [108.388558, 40.816217], [108.475994, 40.778131], [108.552579, 40.70041], [108.650609, 40.63199], [108.770188, 40.572873], [108.884135, 40.546724], [108.992448, 40.553546], [109.134145, 40.534761], [109.309122, 40.490371], [109.449578, 40.488821], [109.555411, 40.53011], [109.63458, 40.531893], [109.687186, 40.494118], [109.835704, 40.491327], [110.080237, 40.523522], [110.303376, 40.484041], [110.505224, 40.372937], [110.674516, 40.301856], [110.811459, 40.270824], [110.918532, 40.265708], [110.995995, 40.286482], [111.125341, 40.234625], [111.306726, 40.110136], [111.406875, 40.012545], [111.425788, 39.9418], [111.416383, 39.867438], [111.378453, 39.789458], [111.385481, 39.717886], [111.43726, 39.652722], [111.433023, 39.576215], [111.372561, 39.488288], [111.284246, 39.429532], [111.212261, 39.413796], [111.16813, 39.399921], [111.155831, 39.370052], [111.155004, 39.347444], [111.192262, 39.296568], [111.199342, 39.239569], [111.144875, 39.124744], [111.081416, 39.044051], [111.008863, 38.997491], [110.980286, 38.956279], [110.995685, 38.920415], [110.970415, 38.832204], [110.904476, 38.691566], [110.877863, 38.599789], [110.890575, 38.556846], [110.797609, 38.443028], [110.598965, 38.258389], [110.503467, 38.113255], [110.511012, 38.00768], [110.584754, 37.880737], [110.724591, 37.732478], [110.782417, 37.613777], [110.758129, 37.524738], [110.718751, 37.46469], [110.664078, 37.433633], [110.64382, 37.384153], [110.657773, 37.316172], [110.609869, 37.217005], [110.500005, 37.086677], [110.427089, 37.020583], [110.391019, 37.018723], [110.384301, 37.005132], [110.406729, 36.979862], [110.407659, 36.919168], [110.387092, 36.823127], [110.392828, 36.762924], [110.424971, 36.738611], [110.428226, 36.717036], [110.402595, 36.698225], [110.416961, 36.647738], [110.471428, 36.565572], [110.485691, 36.42881], [110.459852, 36.237478], [110.490135, 36.005658], [110.576434, 35.733323], [110.579432, 35.533697], [110.458715, 35.343166], [110.366111, 35.234232], [110.316295, 35.1346], [110.278365, 35.007993], [110.262035, 34.867846], [110.26989, 34.637266], [110.465227, 34.59701], [110.618602, 34.604193], [110.795284, 34.645405], [110.890317, 34.682586], [110.96995, 34.724496], [111.026949, 34.7462], [111.10126, 34.794827], [111.243164, 34.8302], [111.45266, 34.852266], [111.588672, 34.89942], [111.651408, 34.971716], [111.736415, 35.029903], [111.843799, 35.074087], [112.117942, 35.021584], [112.558742, 34.872497], [112.856812, 34.809013], [113.012151, 34.831182], [113.155708, 34.874797], [113.28769, 34.939857], [113.398691, 34.97417], [113.48897, 34.977736], [113.617489, 34.953732], [113.784404, 34.902211], [113.900314, 34.894589], [113.965323, 34.930943], [114.156268, 34.936059], [114.473147, 34.909937], [114.681403, 34.92761], [114.798192, 34.977736], [114.830852, 35.019775]], [[96.164187, 35.129639], [96.747718, 35.05321], [97.072039, 34.930607]]]}}, {"type": "Feature", "properties": {"scalerank": 3, "featurecla": "River", "name": "Huang", "note": null, "min_zoom": 3.0, "name_alt": "Yellow", "name_en": "Yellow", "min_label": 4.0}, "bbox": [114.837673, 35.019775, 119.03566, 37.823609], "geometry": {"type": "MultiLineString", "coordinates": [[[114.837673, 35.019775], [114.862374, 35.061168], [114.865578, 35.144599], [114.905472, 35.228548], [115.01389, 35.329523], [115.136053, 35.406263], [115.272065, 35.458818], [115.340381, 35.502639], [115.341001, 35.537779], [115.381981, 35.597207], [115.463268, 35.680923], [115.596386, 35.758438], [115.781078, 35.829777], [115.870892, 35.880343], [115.865724, 35.910056], [115.883294, 35.938634], [115.923602, 35.966022], [115.966183, 35.976202], [116.035739, 36.071029], [116.077804, 36.109734], [116.115941, 36.142962], [116.227149, 36.201357], [116.450649, 36.338506], [116.580822, 36.439688], [116.592605, 36.489504], [116.644074, 36.56149], [116.735128, 36.655696], [116.861942, 36.726131], [117.024413, 36.772898], [117.150503, 36.86204], [117.24011, 36.993608], [117.351783, 37.081871], [117.485418, 37.126752], [117.570943, 37.175457], [117.608357, 37.228012], [117.692899, 37.256124], [117.824674, 37.259845], [117.969678, 37.290076], [118.127911, 37.346868], [118.237517, 37.430532], [118.298392, 37.541068], [118.385157, 37.603907], [118.497811, 37.618944], [118.644882, 37.67752], [118.826267, 37.779581], [118.946053, 37.823609], [119.03566, 37.809165]]]}}, {"type": "Feature", "properties": {"scalerank": 1, "featurecla": "River", "name": "Yangtze", "note": null, "min_zoom": 2.0, "name_alt": null, "name_en": "Yangtze", "min_label": 3.0}, "bbox": [113.1277, 29.462776, 120.073942, 32.235371], "geometry": {"type": "MultiLineString", "coordinates": [[[113.1277, 29.462776], [113.166354, 29.484428], [113.209607, 29.537836], [113.530156, 29.831616], [113.696347, 29.949283], [113.760323, 29.938741], [113.859852, 29.972331], [113.994727, 30.050052], [114.011057, 30.124466], [113.908841, 30.195522], [113.885276, 30.246164], [113.940467, 30.276292], [113.989559, 30.278566], [114.032451, 30.252986], [114.11627, 30.328382], [114.288456, 30.572088], [114.303235, 30.593043], [114.395943, 30.664433], [114.472011, 30.661281], [114.557948, 30.6033], [114.66187, 30.582139], [114.783826, 30.597823], [114.840929, 30.564543], [114.833177, 30.482274], [114.885215, 30.423105], [114.997146, 30.387086], [115.057815, 30.335797], [115.067323, 30.26929], [115.101533, 30.229215], [115.160444, 30.215572], [115.251808, 30.127903], [115.375625, 29.966233], [115.504402, 29.87921], [115.638038, 29.866911], [115.750899, 29.82849], [115.842728, 29.763998], [115.982823, 29.74604], [116.171132, 29.774565], [116.211853, 29.785159]], [[116.19759, 29.751388], [116.211853, 29.785159]], [[116.211853, 29.785159], [116.327194, 29.815183], [116.451115, 29.86779], [116.543925, 29.931403], [116.605627, 30.006024], [116.682935, 30.06137], [116.775849, 30.097388], [116.846698, 30.167694], [116.895532, 30.272235], [116.913205, 30.349207], [116.899563, 30.39861], [116.971961, 30.445997], [117.130401, 30.491369], [117.212205, 30.552321], [117.217373, 30.628828], [117.246622, 30.673994], [117.326617, 30.694768], [117.604636, 30.776468], [117.724887, 30.886384], [117.779974, 31.051748], [117.843794, 31.124199], [117.916451, 31.103787], [117.968076, 31.129573], [117.998772, 31.20161], [118.089361, 31.255224], [118.239946, 31.290442], [118.31188, 31.34062], [118.30542, 31.405758], [118.33317, 31.50986], [118.395182, 31.652952], [118.514658, 31.841132], [118.691753, 32.074425], [118.961401, 32.203203], [119.323601, 32.227387], [119.530203, 32.228834], [119.643064, 32.235371], [119.770964, 32.206949], [119.866823, 32.100341], [119.941496, 32.039957], [120.073942, 31.960272]]]}}]}